[
    {
        "Altitude(m)": 607895.7863648188,
        "Argument of Periapsis(deg)": 0.0,
        "Eccentricity": 0.0,
        "Inclination(deg)": 60.0,
        "Latitude(deg)": 40.99825556999707,
        "Longitude(deg)": -114.91130295561787,
        "Mean Anomaly(deg)": 130.90910000000005,
        "RAAN(deg)": 195.00000000000003,
        "Satellite Name": "Test1 866",
        "Satellite Number": 866,
        "Semi-Major Axis(m)": 6980739.136638005,
        "Time(s)": 0
    },
    {
        "Altitude(m)": 607795.0990952849,
        "Argument of Periapsis(deg)": 0.00010418945913296404,
        "Eccentricity": 0.0,
        "Inclination(deg)": 60.0,
        "Latitude(deg)": 40.530579306933284,
        "Longitude(deg)": -114.41471058319767,
        "Mean Anomaly(deg)": 131.5292061454618,
        "RAAN(deg)": 194.99957995086024,
        "Satellite Name": "Test1 866",
        "Satellite Number": 866,
        "Semi-Major Axis(m)": 6980739.136638005,
        "Time(s)": 10
    },
    {
        "Altitude(m)": 607694.5873905387,
        "Argument of Periapsis(deg)": 0.0002083789182659281,
        "Eccentricity": 0.0,
        "Inclination(deg)": 60.0,
        "Latitude(deg)": 40.06039310669285,
        "Longitude(deg)": -113.92555904607572,
        "Mean Anomaly(deg)": 132.14931229092366,
        "RAAN(deg)": 194.99915990172053,
        "Satellite Name": "Test1 866",
        "Satellite Number": 866,
        "Semi-Major Axis(m)": 6980739.136638005,
        "Time(s)": 20
    },
    {
        "Altitude(m)": 607594.3149493657,
        "Argument of Periapsis(deg)": 0.00031256837739889213,
        "Eccentricity": 0.0,
        "Inclination(deg)": 60.0,
        "Latitude(deg)": 39.58777054257728,
        "Longitude(deg)": -113.4436627391127,
        "Mean Anomaly(deg)": 132.76941843638545,
        "RAAN(deg)": 194.99873985258077,
        "Satellite Name": "Test1 866",
        "Satellite Number": 866,
        "Semi-Major Axis(m)": 6980739.136638005,
        "Time(s)": 30
    },
    {
        "Altitude(m)": 607494.3455708824,
        "Argument of Periapsis(deg)": 0.0004167578365318562,
        "Eccentricity": 0.0,
        "Inclination(deg)": 60.0,
        "Latitude(deg)": 39.11278294774149,
        "Longitude(deg)": -112.96883909709211,
        "Mean Anomaly(deg)": 133.38952458184727,
        "RAAN(deg)": 194.99831980344103,
        "Satellite Name": "Test1 866",
        "Satellite Number": 866,
        "Semi-Major Axis(m)": 6980739.136638005,
        "Time(s)": 40
    },
    {
        "Altitude(m)": 607394.7431226617,
        "Argument of Periapsis(deg)": 0.0005209472956648203,
        "Eccentricity": 0.0,
        "Inclination(deg)": 60.0,
        "Latitude(deg)": 38.635499488555,
        "Longitude(deg)": -112.50090961516365,
        "Mean Anomaly(deg)": 134.00963072730914,
        "RAAN(deg)": 194.99789975430127,
        "Satellite Name": "Test1 866",
        "Satellite Number": 866,
        "Semi-Major Axis(m)": 6980739.136638005,
        "Time(s)": 50
    },
    {
        "Altitude(m)": 607295.5715087303,
        "Argument of Periapsis(deg)": 0.0006251367547977843,
        "Eccentricity": 0.0,
        "Inclination(deg)": 60.0,
        "Latitude(deg)": 38.15598723642165,
        "Longitude(deg)": -112.03969934559724,
        "Mean Anomaly(deg)": 134.62973687277096,
        "RAAN(deg)": 194.99747970516157,
        "Satellite Name": "Test1 866",
        "Satellite Number": 866,
        "Semi-Major Axis(m)": 6980739.136638005,
        "Time(s)": 60
    },
    {
        "Altitude(m)": 607196.8946374948,
        "Argument of Periapsis(deg)": 0.0007293262139307483,
        "Eccentricity": 0.0,
        "Inclination(deg)": 60.0,
        "Latitude(deg)": 37.67431123799175,
        "Longitude(deg)": -111.58503638485304,
        "Mean Anomaly(deg)": 135.2498430182328,
        "RAAN(deg)": 194.9970596560218,
        "Satellite Name": "Test1 866",
        "Satellite Number": 866,
        "Semi-Major Axis(m)": 6980739.136638005,
        "Time(s)": 70
    },
    {
        "Altitude(m)": 607098.7763896262,
        "Argument of Periapsis(deg)": 0.0008335156730637124,
        "Eccentricity": 0.0,
        "Inclination(deg)": 60.0,
        "Latitude(deg)": 37.19053458371509,
        "Longitude(deg)": -111.13675286488417,
        "Mean Anomaly(deg)": 135.86994916369466,
        "RAAN(deg)": 194.99663960688207,
        "Satellite Name": "Test1 866",
        "Satellite Number": 866,
        "Semi-Major Axis(m)": 6980739.136638005,
        "Time(s)": 80
    },
    {
        "Altitude(m)": 607001.2805859083,
        "Argument of Periapsis(deg)": 0.0009377051321966765,
        "Eccentricity": 0.0,
        "Inclination(deg)": 60.0,
        "Latitude(deg)": 36.70471847469241,
        "Longitude(deg)": -110.69468442389085,
        "Mean Anomaly(deg)": 136.4900553091565,
        "RAAN(deg)": 194.9962195577423,
        "Satellite Name": "Test1 866",
        "Satellite Number": 866,
        "Semi-Major Axis(m)": 6980739.136638005,
        "Time(s)": 90
    },
    {
        "Altitude(m)": 606904.47095504,
        "Argument of Periapsis(deg)": 0.0010418945913296407,
        "Eccentricity": 0.0,
        "Inclination(deg)": 60.0,
        "Latitude(deg)": 36.216922287799164,
        "Longitude(deg)": -110.25866967027949,
        "Mean Anomaly(deg)": 137.11016145461832,
        "RAAN(deg)": 194.9957995086026,
        "Satellite Name": "Test1 866",
        "Satellite Number": 866,
        "Semi-Major Axis(m)": 6980739.136638005,
        "Time(s)": 100
    },
    {
        "Altitude(m)": 606808.4111014468,
        "Argument of Periapsis(deg)": 0.0011460840504626045,
        "Eccentricity": 0.0,
        "Inclination(deg)": 60.0,
        "Latitude(deg)": 35.72720363906559,
        "Longitude(deg)": -109.828551153509,
        "Mean Anomaly(deg)": 137.73026760008014,
        "RAAN(deg)": 194.99537945946284,
        "Satellite Name": "Test1 866",
        "Satellite Number": 866,
        "Semi-Major Axis(m)": 6980739.136638005,
        "Time(s)": 110
    },
    {
        "Altitude(m)": 606713.1644731045,
        "Argument of Periapsis(deg)": 0.0012502735095955685,
        "Eccentricity": 0.0,
        "Inclination(deg)": 60.0,
        "Latitude(deg)": 35.23561844530177,
        "Longitude(deg)": -109.40417481681862,
        "Mean Anomaly(deg)": 138.35037374554196,
        "RAAN(deg)": 194.9949594103231,
        "Satellite Name": "Test1 866",
        "Satellite Number": 866,
        "Semi-Major Axis(m)": 6980739.136638005,
        "Time(s)": 120
    },
    {
        "Altitude(m)": 606618.794329346,
        "Argument of Periapsis(deg)": 0.0013544629687285324,
        "Eccentricity": 0.0,
        "Inclination(deg)": 60.0,
        "Latitude(deg)": 34.74222098397019,
        "Longitude(deg)": -108.98538944538838,
        "Mean Anomaly(deg)": 138.97047989100378,
        "RAAN(deg)": 194.99453936118334,
        "Satellite Name": "Test1 866",
        "Satellite Number": 866,
        "Semi-Major Axis(m)": 6980739.136638005,
        "Time(s)": 130
    },
    {
        "Altitude(m)": 606525.3637087594,
        "Argument of Periapsis(deg)": 0.0014586524278614966,
        "Eccentricity": 0.0,
        "Inclination(deg)": 60.0,
        "Latitude(deg)": 34.2470639513126,
        "Longitude(deg)": -108.5720476234156,
        "Mean Anomaly(deg)": 139.59058603646565,
        "RAAN(deg)": 194.99411931204364,
        "Satellite Name": "Test1 866",
        "Satellite Number": 866,
        "Semi-Major Axis(m)": 6980739.136638005,
        "Time(s)": 140
    },
    {
        "Altitude(m)": 606432.9353970977,
        "Argument of Periapsis(deg)": 0.0015628418869944607,
        "Eccentricity": 0.0,
        "Inclination(deg)": 60.0,
        "Latitude(deg)": 33.75019851874279,
        "Longitude(deg)": -108.16400517492889,
        "Mean Anomaly(deg)": 140.21069218192744,
        "RAAN(deg)": 194.99369926290387,
        "Satellite Name": "Test1 866",
        "Satellite Number": 866,
        "Semi-Major Axis(m)": 6980739.136638005,
        "Time(s)": 150
    },
    {
        "Altitude(m)": 606341.5718952802,
        "Argument of Periapsis(deg)": 0.0016670313461274247,
        "Eccentricity": 0.0,
        "Inclination(deg)": 60.0,
        "Latitude(deg)": 33.25167438752454,
        "Longitude(deg)": -107.76112060171658,
        "Mean Anomaly(deg)": 140.8307983273893,
        "RAAN(deg)": 194.99327921376414,
        "Satellite Name": "Test1 866",
        "Satellite Number": 866,
        "Semi-Major Axis(m)": 6980739.136638005,
        "Time(s)": 160
    },
    {
        "Altitude(m)": 606251.3353874707,
        "Argument of Periapsis(deg)": 0.0017712208052603888,
        "Eccentricity": 0.0,
        "Inclination(deg)": 60.0,
        "Latitude(deg)": 32.75153984175852,
        "Longitude(deg)": -107.3632560317054,
        "Mean Anomaly(deg)": 141.45090447285114,
        "RAAN(deg)": 194.99285916462438,
        "Satellite Name": "Test1 866",
        "Satellite Number": 866,
        "Semi-Major Axis(m)": 6980739.136638005,
        "Time(s)": 170
    },
    {
        "Altitude(m)": 606162.2877092606,
        "Argument of Periapsis(deg)": 0.001875410264393353,
        "Eccentricity": 0.0,
        "Inclination(deg)": 60.0,
        "Latitude(deg)": 32.24984179970328,
        "Longitude(deg)": -106.97027665246131,
        "Mean Anomaly(deg)": 142.07101061831295,
        "RAAN(deg)": 194.99243911548467,
        "Satellite Name": "Test1 866",
        "Satellite Number": 866,
        "Semi-Major Axis(m)": 6980739.136638005,
        "Time(s)": 180
    },
    {
        "Altitude(m)": 606074.4903159557,
        "Argument of Periapsis(deg)": 0.0019795997235263173,
        "Eccentricity": 0.0,
        "Inclination(deg)": 60.0,
        "Latitude(deg)": 31.74662586346073,
        "Longitude(deg)": -106.58205014306186,
        "Mean Anomaly(deg)": 142.6911167637748,
        "RAAN(deg)": 194.9920190663449,
        "Satellite Name": "Test1 866",
        "Satellite Number": 866,
        "Semi-Major Axis(m)": 6980739.136638005,
        "Time(s)": 190
    }
]